STARLINK-5355           
1 57139U 23090AQ  24027.56762113 -.00000210  00000+0 -49000-6 0  9998
2 57139  43.0035 137.3408 0001202 261.5997  98.4709 15.02521086 34220
STARLINK-5354           
1 57140U 23090AR  24027.57094486  .00002872  00000+0  22751-3 0  9997
2 57140  43.0025 137.3629 0001318 261.5054  98.5639 15.02544356 33270
STARLINK-5357           
1 57141U 23090AS  24027.56206575  .00002540  00000+0  20302-3 0  9993
2 57141  43.0035 137.2976 0001314 256.0408 104.0288 15.02544339 34224
STARLINK-5361           
1 57142U 23090AT  24027.55762484  .00004012  00000+0  31183-3 0  9994
2 57142  43.0038 137.2655 0001237 262.4158  97.6544 15.02546086 34222
STARLINK-5358           
1 57143U 23090AU  24027.55429603  .00002396  00000+0  19236-3 0  9996
2 57143  43.0039 137.2410 0001248 259.8121 100.2580 15.02544253 34220
STARLINK-5150           
1 57144U 23090AV  24027.56539643  .00000569  00000+0  57186-4 0  9991
2 57144  43.0038 137.3221 0001208 267.6740  92.3964 15.02540204 34220
STARLINK-5768           
1 57145U 23090AW  24027.54541967  .00000194  00000+0  29440-4 0  9998
2 57145  43.0039 137.1701 0001135 256.5543 103.5172 15.02535582 34229
STARLINK-5791           
1 57146U 23090AX  24027.55207712  .00008923  00000+0  67456-3 0  9993
2 57146  43.0036 137.2240 0001380 276.4596  83.6089 15.02549191 34223
STARLINK-5765           
1 57147U 23090AY  24027.54097904  .00000890  00000+0  80958-4 0  9991
2 57147  43.0038 137.1350 0001181 260.0057 100.0652 15.02537882 34412
STARLINK-5788           
1 57148U 23090AZ  24027.53432394  .00000308  00000+0  37865-4 0  9990
2 57148  43.0028 137.0863 0001045 272.8183  87.2540 15.02534027 34229
STARLINK-5778           
1 57149U 23090BA  24027.55480400 -.00000814  00000+0 -45192-4 0  9990
2 57149  43.0034 111.1955 0001049 256.6605 103.4120 15.02543298 34714
STARLINK-5780           
1 57150U 23090BB  24027.54874962  .00001183  00000+0  10264-3 0  9990
2 57150  43.0039 137.1960 0001081 251.5764 108.4961 15.02537333 34419
STARLINK-5776           
1 57151U 23090BC  24027.54763488  .00002304  00000+0  18555-3 0  9998
2 57151  43.0035 137.1882 0001202 261.2582  98.8125 15.02543655 34418
STARLINK-6164           
1 57152U 23090BD  24027.55096463  .00006409  00000+0  48901-3 0  9990
2 57152  43.0037 137.2140 0001294 243.9583 116.1126 15.02539728 34419
STARLINK-5879           
1 57153U 23090BE  24027.50805662 -.00000283  00000+0 -58712-5 0  9994
2 57153  43.0045 124.7356 0001175 258.9732 101.0979 15.02532777 33414
STARLINK-6106           
1 57154U 23090BF  24027.54208952  .00000389  00000+0  43897-4 0  9990
2 57154  43.0046 137.1454 0001104 264.1349  95.9367 15.02539429 34412
STARLINK-6108           
1 57155U 23090BG  24027.52766356  .00000579  00000+0  57933-4 0  9993
2 57155  43.0033 137.0351 0001145 254.6906 105.3810 15.02534039 34413
STARLINK-6137           
1 57156U 23090BH  24027.53099169  .00000758  00000+0  71191-4 0  9997
2 57156  43.0037 137.0621 0001096 261.3757  98.6961 15.02537432 34413
STARLINK-5525           
1 57218U 23094A   24027.00647286  .00002379  00000+0  19108-3 0  9991
2 57218  43.0030 269.2801 0001247 265.3095  94.7605 15.02546634 30883
STARLINK-5520           
1 57219U 23094B   24027.00314470  .00002537  00000+0  20275-3 0  9991
2 57219  43.0031 269.2554 0001273 262.0678  98.0020 15.02542955 30880
STARLINK-5880           
1 57220U 23094C   24026.98760369  .00004059  00000+0  31540-3 0  9999
2 57220  43.0033 269.1390 0001195 271.8233  88.2472 15.02535680 30888
STARLINK-5875           
1 57221U 23094D   24026.99981680  .00002648  00000+0  21099-3 0  9992
2 57221  43.0030 269.2306 0001230 262.8211  97.2491 15.02541754 30880
STARLINK-5870           
1 57222U 23094E   24026.99426801  .00007352  00000+0  55855-3 0  9996
2 57222  43.0020 269.1898 0001355 262.7913  97.2776 15.02550627 31517
STARLINK-5519           
1 57223U 23094F   24026.99759372  .00002328  00000+0  18734-3 0  9992
2 57223  43.0033 269.2141 0001307 262.4920  97.5774 15.02543832 30886
STARLINK-5983           
1 57224U 23094G   24026.99093557  .00003082  00000+0  24306-3 0  9999
2 57224  43.0032 269.1637 0001208 263.9126  96.1579 15.02546663 30882
STARLINK-6294           
1 57225U 23094H   24026.98982472  .00001988  00000+0  16218-3 0  9998
2 57225  43.0031 269.1553 0001197 263.0795  96.9911 15.02546761 30886
STARLINK-6350           
1 57226U 23094J   24026.97983952  .00000327  00000+0  39266-4 0  9997
2 57226  43.0034 269.0794 0001145 270.1103  89.9608 15.02542940 30881
STARLINK-5996           
1 57227U 23094K   24026.98427598  .00003890  00000+0  30285-3 0  9997
2 57227  43.0030 269.1147 0001202 260.1162  99.9545 15.02536278 30887
STARLINK-6230           
1 57228U 23094L   24026.97650480  .00002550  00000+0  20374-3 0  9995
2 57228  43.0034 269.0544 0001171 268.1523  91.9186 15.02548660 30887
STARLINK-6233           
1 57229U 23094M   24026.98316763  .00003314  00000+0  26023-3 0  9996
2 57229  43.0022 269.1050 0001261 255.6886 104.3816 15.02542618 30887
STARLINK-6250           
1 57230U 23094N   24027.17039109  .00008056  00000+0  61046-3 0  9998
2 57230  43.0016 267.9285 0001308 261.5477  98.5217 15.02552008 30919
STARLINK-5840           
1 57231U 23094P   24027.14708192  .00008604  00000+0  65084-3 0  9996
2 57231  43.0019 267.7548 0001313 270.2251  89.8441 15.02555918 30911
STARLINK-5872           
1 57232U 23094Q   24027.01301475  .00002979  00000+0  23542-3 0  9998
2 57232  43.0029 268.4644 0001300 264.7504  95.3190 15.02544004 31551
STARLINK-5866           
1 57233U 23094R   24026.95429947  .00006385  00000+0  48698-3 0  9990
2 57233  43.0021 268.8886 0001233 263.6417  96.4285 15.02559296 30883
STARLINK-6368           
1 57234U 23094S   24027.14375292  .00010708  00000+0  80611-3 0  9991
2 57234  43.0019 267.7305 0001410 267.0861  92.9820 15.02556703 30913
STARLINK-6360           
1 57235U 23094T   24027.15594395  .00032554  00000+0  24092-2 0  9993
2 57235  43.0024 267.8188 0002062 245.3057 114.7571 15.02606864 30910
STARLINK-6315           
1 57236U 23094U   24027.61613788  .00001602  00000+0  13363-3 0  9993
2 57236  43.0028 253.1080 0001453 265.1272  94.9405 15.02539107 31120
STARLINK-6365           
1 57237U 23094V   24027.15040508  .00009169  00000+0  69246-3 0  9994
2 57237  43.0021 267.7800 0001407 265.9893  94.0789 15.02563813 30914
STARLINK-6334           
1 57238U 23094W   24027.07653785  .00003928  00000+0  30562-3 0  9999
2 57238  43.0019 255.9360 0001302 267.3305  92.7388 15.02548138 31048
STARLINK-6330           
1 57239U 23094X   24027.14264564  .00009718  00000+0  73318-3 0  9990
2 57239  43.0018 267.7214 0001389 265.0058  95.0625 15.02552016 30917
STARLINK-6351           
1 57240U 23094Y   24027.59948583  .00011637  00000+0  87486-3 0  9995
2 57240  43.0012 252.9801 0001414 276.7435  83.3246 15.02546604 31127
STARLINK-6349           
1 57241U 23094Z   24027.61280471  .00001218  00000+0  10520-3 0  9993
2 57241  43.0030 253.0878 0001344 304.1626  55.9089 15.02542695 31120
STARLINK-6306           
1 57242U 23094AA  24026.94469016  .00002566  00000+0  20491-3 0  9998
2 57242  43.0029 256.6695 0001180 273.6600  86.4107 15.02544359 31023
STARLINK-6346           
1 57243U 23094AB  24026.94691589  .00001057  00000+0  93277-4 0  9998
2 57243  43.0029 256.6868 0001084 267.3167  92.7551 15.02542871 31027
STARLINK-5610           
1 57244U 23094AC  24026.93690252  .00004952  00000+0  38102-3 0  9996
2 57244  43.0033 256.6077 0001326 262.1231  97.9461 15.02569883 31028
STARLINK-5587           
1 57245U 23094AD  24027.60503663  .00001103  00000+0  96665-4 0  9995
2 57245  43.0027 253.0211 0001140 265.7600  94.3112 15.02540767 31121
STARLINK-5049           
1 57246U 23094AE  24026.97786992  .00002309  00000+0  18591-3 0  9993
2 57246  43.0029 256.0553 0001157 269.0067  91.0643 15.02547697 31030
STARLINK-5039           
1 57247U 23094AF  24026.93359518  .00003524  00000+0  27575-3 0  9992
2 57247  43.0018 256.5825 0001185 261.3385  98.7323 15.02548408 31024
STARLINK-5514           
1 57248U 23094AG  24027.12969955  .00004569  00000+0  35296-3 0  9996
2 57248  43.0024 255.4753 0001199 262.8253  97.2453 15.02547912 31055
STARLINK-5517           
1 57249U 23094AH  24026.98424598  .00002671  00000+0  21717-3 0  9994
2 57249  43.0030 256.0576 0001140 267.8174  92.2538 15.01736958 31032
STARLINK-5488           
1 57250U 23094AJ  24027.58283853  .00000555  00000+0  56143-4 0  9991
2 57250  43.0027 252.8534 0001389 254.0800 105.9889 15.02535156 31126
STARLINK-5513           
1 57251U 23094AK  24026.92471776  .00001374  00000+0  11676-3 0  9993
2 57251  43.0030 256.5162 0001114 263.3315  96.7401 15.02540488 31029
STARLINK-5511           
1 57252U 23094AL  24026.97676424  .00001620  00000+0  13497-3 0  9993
2 57252  43.0028 256.0465 0001266 262.8094  97.2605 15.02540690 31032
STARLINK-5516           
1 57253U 23094AM  24027.58838936  .00001148  00000+0  10002-3 0  9994
2 57253  43.0019 252.8963 0001256 258.0519 102.0182 15.02536146 31124
STARLINK-5490           
1 57254U 23094AN  24026.97121489  .00007865  00000+0  59650-3 0  9999
2 57254  43.0014 256.0050 0001190 264.7183  95.3524 15.02546002 31037
STARLINK-5481           
1 57255U 23094AP  24026.97343367  .00003639  00000+0  28424-3 0  9991
2 57255  43.0017 256.0227 0001263 271.2028  88.8669 15.02546316 31034
STARLINK-5512           
1 57256U 23094AQ  24027.01993542  .00010614  00000+0  79913-3 0  9994
2 57256  43.0014 255.5300 0001508 275.8750  84.1920 15.02559518 31040
STARLINK-5503           
1 57257U 23094AR  24026.98009352  .00001486  00000+0  12506-3 0  9999
2 57257  43.0030 256.0718 0001254 265.1501  94.9198 15.02541774 31694
STARLINK-5476           
1 57258U 23094AS  24026.96788445  .00001640  00000+0  13641-3 0  9998
2 57258  43.0030 255.9795 0001260 264.2400  95.8299 15.02541873 31033
